start=new Date('2022-12-23T00:00:00.000Z').valueOf();
sats=[{"COUNTRY_CODE":"US","ECCENTRICITY":"0.00016520","ARG_OF_PERICENTER":"50.0249","APOAPSIS":"540.901","REV_AT_EPOCH":"130","LAUNCH_DATE":"2022-09-24","MEAN_MOTION_DOT":"0.00002728","NORAD_CAT_ID":"53909","SEMIMAJOR_AXIS":"6917.894","FILE":"3719655","EPHEMERIS_TYPE":"0","RA_OF_ASC_NODE":"178.7834","RCS_SIZE":"LARGE","PERIAPSIS":"538.616","CENTER_NAME":"EARTH","TLE_LINE1":"1 53909U 22119Z   22357.00001157  .00002728  00000-0  18946-3 0  9994","INCLINATION":"53.2172","GP_ID":"221239275","DECAY_DATE":null,"MEAN_MOTION":"15.08835680","MEAN_ELEMENT_THEORY":"SGP4","MEAN_MOTION_DDOT":"0.0000000000000","OBJECT_NAME":"STARLINK-4796","CLASSIFICATION_TYPE":"U","TIME_SYSTEM":"UTC","MEAN_ANOMALY":"355.0357","EPOCH":"2022-12-23T00:00:00.999648","BSTAR":"0.00018946000000","OBJECT_ID":"2022-119Z","ELEMENT_SET_NO":"999","REF_FRAME":"TEME","SITE":"AFETR","OBJECT_TYPE":"PAYLOAD","TLE_LINE2":"2 53909  53.2172 178.7834 0001652  50.0249 355.0357 15.08835680  1306","PERIOD":"95.438"},{"OBJECT_TYPE":"PAYLOAD","SITE":"AFETR","TLE_LINE2":"2 53910  53.2172 178.5881 0001294 101.0719  43.4676 15.09621918  1309","PERIOD":"95.388","EPOCH":"2022-12-23T00:00:00.999648","CLASSIFICATION_TYPE":"U","TIME_SYSTEM":"UTC","OBJECT_NAME":"STARLINK-5056","MEAN_ANOMALY":"43.4676","OBJECT_ID":"2022-119AA","ELEMENT_SET_NO":"999","REF_FRAME":"TEME","BSTAR":"-0.05318800000000","RA_OF_ASC_NODE":"178.5881","RCS_SIZE":"LARGE","PERIAPSIS":"536.462","CENTER_NAME":"EARTH","EPHEMERIS_TYPE":"0","MEAN_MOTION_DDOT":"0.0000000000000","TLE_LINE1":"1 53910U 22119AA  22357.00001157 -.00807712  00000-0 -53188-1 0  9999","INCLINATION":"53.2172","GP_ID":"221239482","DECAY_DATE":null,"MEAN_MOTION":"15.09621918","MEAN_ELEMENT_THEORY":"SGP4","ARG_OF_PERICENTER":"101.0719","APOAPSIS":"538.251","COUNTRY_CODE":"US","ECCENTRICITY":"0.00012940","REV_AT_EPOCH":"130","LAUNCH_DATE":"2022-09-24","MEAN_MOTION_DOT":"-0.00807712","NORAD_CAT_ID":"53910","FILE":"3719655","SEMIMAJOR_AXIS":"6915.491"},{"NORAD_CAT_ID":"53911","MEAN_MOTION_DOT":"-0.00063297","SEMIMAJOR_AXIS":"6917.772","FILE":"3719655","REV_AT_EPOCH":"130","LAUNCH_DATE":"2022-09-24","ARG_OF_PERICENTER":"73.2338","APOAPSIS":"540.633","ECCENTRICITY":"0.00014410","COUNTRY_CODE":"US","MEAN_MOTION_DDOT":"0.0000000000000","INCLINATION":"53.2172","GP_ID":"221238446","MEAN_MOTION":"15.08875592","DECAY_DATE":null,"MEAN_ELEMENT_THEORY":"SGP4","TLE_LINE1":"1 53911U 22119AB  22357.00001157 -.00063297  00000-0 -39903-2 0  9992","RCS_SIZE":"LARGE","PERIAPSIS":"538.640","CENTER_NAME":"EARTH","RA_OF_ASC_NODE":"178.7047","EPHEMERIS_TYPE":"0","ELEMENT_SET_NO":"999","REF_FRAME":"TEME","OBJECT_ID":"2022-119AB","BSTAR":"-0.00399030000000","EPOCH":"2022-12-23T00:00:00.999648","MEAN_ANOMALY":"11.8607","CLASSIFICATION_TYPE":"U","TIME_SYSTEM":"UTC","OBJECT_NAME":"STARLINK-5048","PERIOD":"95.435","TLE_LINE2":"2 53911  53.2172 178.7047 0001441  73.2338  11.8607 15.08875592  1308","OBJECT_TYPE":"PAYLOAD","SITE":"AFETR"},{"APOAPSIS":"516.404","ARG_OF_PERICENTER":"64.8752","COUNTRY_CODE":"US","ECCENTRICITY":"0.00013270","LAUNCH_DATE":"2022-09-24","REV_AT_EPOCH":"130","SEMIMAJOR_AXIS":"6893.624","FILE":"3719655","MEAN_MOTION_DOT":"-0.00916647","NORAD_CAT_ID":"53912","RA_OF_ASC_NODE":"178.2765","CENTER_NAME":"EARTH","PERIAPSIS":"514.574","RCS_SIZE":"LARGE","EPHEMERIS_TYPE":"0","MEAN_MOTION_DDOT":"0.0000000000000","TLE_LINE1":"1 53912U 22119AC  22357.00001157 -.00916647  00000-0 -49751-1 0  9990","MEAN_MOTION":"15.16810729","GP_ID":"221238653","DECAY_DATE":null,"MEAN_ELEMENT_THEORY":"SGP4","INCLINATION":"53.2172","EPOCH":"2022-12-23T00:00:00.999648","OBJECT_NAME":"STARLINK-5059","CLASSIFICATION_TYPE":"U","TIME_SYSTEM":"UTC","MEAN_ANOMALY":"241.8992","OBJECT_ID":"2022-119AC","ELEMENT_SET_NO":"999","REF_FRAME":"TEME","BSTAR":"-0.04975100000000","OBJECT_TYPE":"PAYLOAD","SITE":"AFETR","TLE_LINE2":"2 53912  53.2172 178.2765 0001327  64.8752 241.8992 15.16810729  1302","PERIOD":"94.936"},{"OBJECT_TYPE":"PAYLOAD","SITE":"AFETR","TLE_LINE2":"2 53913  53.2173 178.5109 0001384  78.7233 104.7848 15.10341696  1303","PERIOD":"95.343","EPOCH":"2022-12-23T00:00:00.999648","CLASSIFICATION_TYPE":"U","OBJECT_NAME":"STARLINK-5053","TIME_SYSTEM":"UTC","MEAN_ANOMALY":"104.7848","OBJECT_ID":"2022-119AD","REF_FRAME":"TEME","ELEMENT_SET_NO":"999","BSTAR":"-0.07506500000000","RA_OF_ASC_NODE":"178.5109","RCS_SIZE":"LARGE","PERIAPSIS":"534.202","CENTER_NAME":"EARTH","EPHEMERIS_TYPE":"0","MEAN_MOTION_DDOT":"0.0000000000000","TLE_LINE1":"1 53913U 22119AD  22357.00001157 -.01146305  00000-0 -75065-1 0  9995","INCLINATION":"53.2173","MEAN_MOTION":"15.10341696","GP_ID":"221238861","DECAY_DATE":null,"MEAN_ELEMENT_THEORY":"SGP4","ARG_OF_PERICENTER":"78.7233","APOAPSIS":"536.116","COUNTRY_CODE":"US","ECCENTRICITY":"0.00013840","REV_AT_EPOCH":"130","LAUNCH_DATE":"2022-09-24","NORAD_CAT_ID":"53913","MEAN_MOTION_DOT":"-0.01146305","SEMIMAJOR_AXIS":"6913.294","FILE":"3719655"},{"APOAPSIS":"535.212","ARG_OF_PERICENTER":"90.7223","COUNTRY_CODE":"US","ECCENTRICITY":"0.00013870","LAUNCH_DATE":"2022-09-24","REV_AT_EPOCH":"130","FILE":"3719655","SEMIMAJOR_AXIS":"6912.388","NORAD_CAT_ID":"53914","MEAN_MOTION_DOT":"-0.01141376","RA_OF_ASC_NODE":"178.4733","CENTER_NAME":"EARTH","PERIAPSIS":"533.294","RCS_SIZE":"LARGE","EPHEMERIS_TYPE":"0","MEAN_MOTION_DDOT":"0.0000000000000","TLE_LINE1":"1 53914U 22119AE  22357.00001157 -.01141376  00000-0 -74101-1 0  9999","DECAY_DATE":null,"GP_ID":"221239069","MEAN_ELEMENT_THEORY":"SGP4","MEAN_MOTION":"15.10638675","INCLINATION":"53.2173","EPOCH":"2022-12-23T00:00:00.999648","CLASSIFICATION_TYPE":"U","OBJECT_NAME":"STARLINK-5040","TIME_SYSTEM":"UTC","MEAN_ANOMALY":"112.0843","OBJECT_ID":"2022-119AE","REF_FRAME":"TEME","ELEMENT_SET_NO":"999","BSTAR":"-0.07410100000000","OBJECT_TYPE":"PAYLOAD","SITE":"AFETR","TLE_LINE2":"2 53914  53.2173 178.4733 0001387  90.7223 112.0843 15.10638675  1305","PERIOD":"95.324"},{"LAUNCH_DATE":"2022-09-24","REV_AT_EPOCH":"130","SEMIMAJOR_AXIS":"6916.443","FILE":"3719655","NORAD_CAT_ID":"53915","MEAN_MOTION_DOT":"-0.00565877","COUNTRY_CODE":"US","ECCENTRICITY":"0.00016360","APOAPSIS":"539.440","ARG_OF_PERICENTER":"55.9829","TLE_LINE1":"1 53915U 22119AF  22357.00001157 -.00565877  00000-0 -37504-1 0  9991","GP_ID":"221238033","DECAY_DATE":null,"MEAN_ELEMENT_THEORY":"SGP4","MEAN_MOTION":"15.09310347","INCLINATION":"53.2172","MEAN_MOTION_DDOT":"0.0000000000000","EPHEMERIS_TYPE":"0","RA_OF_ASC_NODE":"178.6265","CENTER_NAME":"EARTH","PERIAPSIS":"537.177","RCS_SIZE":"LARGE","BSTAR":"-0.03750400000000","OBJECT_ID":"2022-119AF","ELEMENT_SET_NO":"999","REF_FRAME":"TEME","OBJECT_NAME":"STARLINK-5017","CLASSIFICATION_TYPE":"U","TIME_SYSTEM":"UTC","MEAN_ANOMALY":"68.8548","EPOCH":"2022-12-23T00:00:00.999648","TLE_LINE2":"2 53915  53.2172 178.6265 0001636  55.9829  68.8548 15.09310347  1300","PERIOD":"95.408","SITE":"AFETR","OBJECT_TYPE":"PAYLOAD"},{"RA_OF_ASC_NODE":"172.9920","RCS_SIZE":"LARGE","PERIAPSIS":"347.309","CENTER_NAME":"EARTH","EPHEMERIS_TYPE":"0","MEAN_MOTION_DDOT":"0.0000000000000","TLE_LINE1":"1 53916U 22119AG  22356.85953776  .00000007  00000-0  44933-5 0  9992","INCLINATION":"53.2164","MEAN_ELEMENT_THEORY":"SGP4","GP_ID":"221238240","DECAY_DATE":null,"MEAN_MOTION":"15.73193063","ARG_OF_PERICENTER":"9.2663","APOAPSIS":"352.251","COUNTRY_CODE":"US","ECCENTRICITY":"0.00036730","REV_AT_EPOCH":"1486","LAUNCH_DATE":"2022-09-24","MEAN_MOTION_DOT":"0.00000007","NORAD_CAT_ID":"53916","FILE":"3719655","SEMIMAJOR_AXIS":"6727.915","OBJECT_TYPE":"PAYLOAD","SITE":"AFETR","TLE_LINE2":"2 53916  53.2164 172.9920 0003673   9.2663 350.8424 15.73193063 14865","PERIOD":"91.534","EPOCH":"2022-12-22T20:37:44.062464","CLASSIFICATION_TYPE":"U","TIME_SYSTEM":"UTC","OBJECT_NAME":"STARLINK-5051","MEAN_ANOMALY":"350.8424","OBJECT_ID":"2022-119AG","ELEMENT_SET_NO":"999","REF_FRAME":"TEME","BSTAR":"0.00000449330000"},{"OBJECT_ID":"2022-119AH","ELEMENT_SET_NO":"999","REF_FRAME":"TEME","BSTAR":"-0.07086300000000","EPOCH":"2022-12-23T00:00:00.999648","CLASSIFICATION_TYPE":"U","TIME_SYSTEM":"UTC","OBJECT_NAME":"STARLINK-5036","MEAN_ANOMALY":"80.8296","TLE_LINE2":"2 53917  53.2173 178.5496 0001256  83.2602  80.8296 15.10008541  1305","PERIOD":"95.364","OBJECT_TYPE":"PAYLOAD","SITE":"AFETR","LAUNCH_DATE":"2022-09-24","REV_AT_EPOCH":"130","FILE":"3719655","SEMIMAJOR_AXIS":"6914.311","NORAD_CAT_ID":"53917","MEAN_MOTION_DOT":"-0.01077587","APOAPSIS":"537.044","ARG_OF_PERICENTER":"83.2602","COUNTRY_CODE":"US","ECCENTRICITY":"0.00012560","MEAN_MOTION_DDOT":"0.0000000000000","TLE_LINE1":"1 53917U 22119AH  22357.00001157 -.01077587  00000-0 -70863-1 0  9995","MEAN_MOTION":"15.10008541","GP_ID":"221239276","DECAY_DATE":null,"MEAN_ELEMENT_THEORY":"SGP4","INCLINATION":"53.2173","RA_OF_ASC_NODE":"178.5496","PERIAPSIS":"535.307","CENTER_NAME":"EARTH","RCS_SIZE":"LARGE","EPHEMERIS_TYPE":"0"},{"APOAPSIS":"534.554","ARG_OF_PERICENTER":"84.3775","ECCENTRICITY":"0.00014020","COUNTRY_CODE":"US","SEMIMAJOR_AXIS":"6911.720","FILE":"3719655","NORAD_CAT_ID":"53918","MEAN_MOTION_DOT":"-0.01047667","LAUNCH_DATE":"2022-09-24","REV_AT_EPOCH":"130","PERIAPSIS":"532.616","CENTER_NAME":"EARTH","RCS_SIZE":"LARGE","RA_OF_ASC_NODE":"178.4359","EPHEMERIS_TYPE":"0","MEAN_MOTION_DDOT":"0.0000000000000","MEAN_ELEMENT_THEORY":"SGP4","GP_ID":"221239483","DECAY_DATE":null,"MEAN_MOTION":"15.10857562","INCLINATION":"53.2147","TLE_LINE1":"1 53918U 22119AJ  22357.00001157 -.01047667  00000-0 -67141-1 0  9997","EPOCH":"2022-12-23T00:00:00.999648","MEAN_ANOMALY":"137.6533","CLASSIFICATION_TYPE":"U","OBJECT_NAME":"STARLINK-5012","TIME_SYSTEM":"UTC","ELEMENT_SET_NO":"999","REF_FRAME":"TEME","OBJECT_ID":"2022-119AJ","BSTAR":"-0.06714100000000","OBJECT_TYPE":"PAYLOAD","SITE":"AFETR","PERIOD":"95.310","TLE_LINE2":"2 53918  53.2147 178.4359 0001402  84.3775 137.6533 15.10857562  1300"}];
